#dP2020 11 11  0  0  0.00000000      97 __u+U IGS14 FIT  IAC
## 2131 259200.00000000   900.00000000 59164 0.0000000000000
+  121   C01C02C03C04C05C06C07C08C09C10C11C12C13C14C16C19C20
+        C21C22C23C24C25C26C27C28C29C30C32C33C34C35C36C37C38
+        C39C40C43C44C45C46C60E01E02E03E04E05E07E08E09E11E12
+        E13E14E15E18E19E21E24E25E26E27E30E31E33E36G01G02G03
+        G04G05G06G07G08G09G10G11G12G13G15G16G17G18G19G20G21
+        G22G23G24G25G26G27G28G29G30G31G32J01J03J07R01R02R03
+        R04R05R07R08R09R11R12R13R14R15R16R17R18R19R20R21R22
+        R23R24  0  0  0  0  0  0  0  0  0  0  0  0  0  0  0
++        13 13 13 13 13  8  8  8  8  8  7  7  8  7  8  7  7
++         7  7  7  7  7  7  7  7  7  7  8  8  7  7  7  7 10
++         9  9  9  9  9  9 14  4  4  4  4  4  4  4  4  4  4
++         4  4  4  4  4  4  4  4  4  4  4  4  4  4  3  3  3
++         3  3  3  3  3  3  3  3  3  3  3  3  3  3  3  3  4
++         3  3  3  3  3  3  3  3  3  3  4 10  9 14  6  5  5
++         5  5  5  5  5  5  5  6  5  5  6  5  5  6  6  5  6
++         5  5  0  0  0  0  0  0  0  0  0  0  0  0  0  0  0
%c M  cc GPS ccc cccc cccc cccc cccc ccccc ccccc ccccc ccccc
%c cc cc ccc ccc cccc cccc cccc cccc ccccc ccccc ccccc ccccc
%f  1.2500000  1.025000000  0.00000000000  0.000000000000000
%f  0.0000000  0.000000000  0.00000000000  0.000000000000000
%i    0    0    0    0      0      0      0      0         0
%i    0    0    0    0      0      0      0      0         0
/* INFORMATION & ANALYSIS CENTER (IAC)            FINAL DATA
/* S/V CLOCKS ARE ALIGNED TO GNSS TIME                      
/* G:C1WC2W R:C1PC2P E:C1XC5X C:C2IC6I J:C1CC2S             
/* PCV:IGS14_2131 OL/AL:FES2004  NONE     YN ORB:CoN CLK:CoN
*  2020 11 11 10 30  0.00000000
PC01 -34405.675450  24412.251561    384.200653   -736.896502
PC02   4439.502770  41904.865569   -491.055721    747.886647
PC03 -14674.137083  39519.679799  -1235.651968    216.785392
PC04 -39664.656634  14367.032889   -309.418665     31.723731
PC05  21849.245351  36042.691155   -383.401067   -315.025347
PC06 -24601.068357  28166.107870  19437.987958    102.399974
PC07 -12523.236269  36851.181104  17084.475203    -29.186780
PC08  -9328.056811  19297.780992 -36203.369432   -687.674763
PC09  -9575.694592  27997.195995  30141.887896    930.149586
PC10  -1827.267889  42157.478811   4378.439781   -144.386104
PC11  -2481.171016  16083.205307 -22612.985525   -744.601686
PC12 -20652.250001  14325.067501 -12122.972401    603.746760
PC13   4759.168169  26725.906102 -32087.039346    738.550440
PC14  -2141.897755  27263.550044   5710.738218    225.137057
PC16 -22596.928740  28502.935196  21230.664723   -608.457748
PC19  -4623.855371 -23651.518175 -14044.944022    614.334419
PC20   7756.831366 -26688.717151   2357.912035   -886.765024
PC21 -16082.428321  13915.895229 -18069.982445   -719.803619
PC22 -14668.949018  -6784.712100 -22754.235118   -789.551675
PC23  22936.726292  13300.211219  -8683.806842   -916.607288
PC24  -3051.063928  17925.023339  21160.220329   -721.409663
PC25  15182.593879  21825.724936   8439.200180   -823.055202
PC26 -17642.584327   4344.225685  21186.803377    900.601933
PC27  25953.884610  -9730.412328   3279.969764    430.953098
PC28  24058.691726   3054.449403 -13789.181015   -147.286784
PC29  -8648.882160 -13706.409282  22714.876754    309.741363
PC30  12406.260648 -17224.534046  18123.497526    402.299495
PC32  16000.453297 -13975.078547  18096.657875   -889.581364
PC33   4703.567434  23701.519712  13967.628996   -833.809883
PC34 -11797.425165  17273.620577 -18466.287855   -811.418499
PC35 -24021.986217  -2452.012964  13965.606316   -565.056372
PC36 -14496.201814 -22209.982457  -8657.058697   -841.380668
PC37  18162.051890  -3263.375748 -20904.976113   -878.579010
PC38  -5073.883489  24110.299258 -34204.436772    111.433970
PC39 -17011.351560  30097.936706  24039.669495     25.021380
PC40  -7922.973533  40673.922849   8233.791351     99.906454
PC43   8189.946013  14033.535616 -22690.307994   -457.156468
PC44 -25657.079092  10491.178947  -3097.999066   -122.105146
PC45 -22965.571712 -13238.827857   8771.220893 999999.999999
PC46   2166.078391 -18301.530903 -20953.694346    550.151217
PC60   7281.424272  41507.453803  -1357.791020     -0.522827
PE01   9055.858391  28102.195138   2069.275671   -980.409641
PE02  -9146.338394 -28093.978408  -1939.820235    175.609765
PE03   -522.069873 -21789.758387 -20030.725470   -363.801212
PE04  16438.987648   6499.420134  23738.843486   -645.585393
PE05  15947.919219 -24525.582202  -4507.702250   -330.340713
PE07 -22960.301831  12916.383786 -13510.471858   -460.454420
PE08 -16554.098272  -6034.334965 -23793.445950   6093.313873
PE09  22809.036351 -13200.261241  13458.906914   5868.893414
PE11  27546.862567  -2700.879026  10493.548625   6850.022702
PE12  26414.356833   9983.755919  -8882.285958   5511.693337
PE13 -27664.786654   2554.368072 -10214.088942    406.201497
PE14   9046.963731 -18332.709935  12376.080029  -1221.678511
PE15 -26512.874635  -9801.687377   8807.252680    844.276245
PE18  -3343.236541  23640.450847 -21898.525033  -1334.578754
PE19  -1638.582606  22803.839669  18796.309731    125.645118
PE21  -4669.243893  22661.577396  18465.617861   -631.372101
PE24  16348.470965  -3298.764809 -24455.789533   -577.322974
PE25   4766.260389 -22561.613439 -18548.691937   -520.018609
PE26 -12019.649427  13714.536569 -23311.768803   2508.760390
PE27 -16116.357821   3892.863788  24532.137293     95.036516
PE30 -17842.147610 -17695.224956  15655.125822   3432.825249
PE31  18015.728388  17051.095206 -16134.026102   -475.609388
PE33   9775.430307  16378.878980 -22625.358291   -463.303274
PE36  12547.669373 -13404.740858  23222.987295    482.440202
PG01  20929.708471  14702.408737  -8004.403444    808.567020
PG02  -1876.109451 -16414.303170  21449.790847   -541.143083
PG03  12757.074284  17816.035518  14997.385535     -0.930030
PG04  14230.176801   7898.639903  20999.826666   -154.262502
PG05  -2196.229319 -26183.949533   2968.853830    -25.615699
PG06  14012.041260  -9143.950527  20694.434968     -0.536666
PG07  25212.479730   5248.021271  -7130.648842   -412.065337
PG08   5467.395274  14522.744474 -21509.962437    -54.714955
PG09  21632.886559  -3584.759901  14935.721619   -288.124629
PG10 -12372.302488  11958.701098 -20067.390070   -501.954874
PG11  14099.842463  13184.632682 -18561.964494   -111.762814
PG12 -10088.806545 -20735.884061  13075.444688     41.853344
PG13   4861.659400 -17955.143746 -19048.173723     63.771453
PG15  -8400.831563 -13992.812455 -21269.492007   -190.772303
PG16   -258.788614  26219.129345   1942.038154   -234.917989
PG17  21332.528515 -15743.444480   1649.167101    352.396670
PG18 -24615.426665  -3885.807453  -9276.680406    319.890404
PG19  18761.043602 -17160.241402   7256.440704    -79.788112
PG20 -16322.789871   -843.948711 -21042.199744    526.066714
PG21  14031.366204  16104.324503 -15283.289323     67.099039
PG22  11165.356118  22940.444932   7861.366590   -731.503265
PG23 -15262.258000    625.783843 -21759.405677     98.870449
PG24 -18948.607590 -15261.797229 -11321.087883      6.581651
PG25 -15092.534787  -8626.609194  19916.493128     20.257284
PG26  -6385.587422  21675.402632  13724.161638    309.969486
PG27  -6638.965521  19397.751688 -16835.697941    -11.158937
PG28  12326.897276 -13291.878347 -18893.647764    656.866514
PG29 -20670.284486    372.487056  16665.938088   -234.197311
PG30  21522.383187  -2700.385153 -15418.958611   -333.627393
PG31 -12503.340698  10568.212345  20937.506936    -80.738400
PG32 -20583.692309  16634.377737    720.638777     -0.535244
PJ01 -24570.672137  31397.127446  -9182.394793   -336.709625
PJ03 -35299.075233  20086.012799  -6626.295937     -2.956573
PJ07 -25381.938797  33670.370816     28.112494      0.011795
PR01  -8097.787383  23931.139113   3559.463243     70.434950
PR02   4437.454487  14164.103308  20758.904328    453.911561
PR03  12813.215764  -3263.007369  21857.323168     25.375093
PR04  13712.353663 -18686.372860  10679.283992     61.160971
PR05   7112.368551 -23622.014599  -6536.976183     60.902311
PR07 -12935.486615   3817.925851 -21613.049006    -41.273519
PR08 -13732.935355  18681.156698 -10565.543669    -55.636933
PR09 -15756.590851 -19974.029610   1294.907638      7.144702
PR11  -7566.370081   8450.969079  22868.553460    -44.305377
PR12   5292.378392  19546.932091  15526.811673    179.247475
PR13  15729.509963  20059.157744   -944.165880    -46.469136
PR14  16728.274077   8732.032462 -17153.187227     57.599918
PR15   8092.206112  -7480.539628 -22979.878011    106.777030
PR16  -6295.635751 -19872.374274 -14809.488453     -8.095182
PR17  24865.793921    -82.544006  -5564.944224    373.076768
PR18  21709.487373  -7295.133192  11295.398429     55.802360
PR19   7842.306336 -10386.251229  21938.857094   -119.238337
PR20 -13509.840430  -7944.937124  20124.838054   -426.315006
PR21 -25120.269580    537.872614   4511.680708   -165.368308
PR22 -20944.352526   7566.091756 -12370.525550    -81.309231
PR23    603.843399  10399.312075 -23288.132978    344.152627
PR24  14323.678237   7950.214752 -19523.489088     20.130750
EOF
